{
    "links": {
        "self": "http://www.neowsapp.com/rest/v1/neo/3137734?api_key=iIulBulltgU6a56xZRHN4H3l9WmuAYTsLGpBGhQ2"
    },
    "id": "3137734",
    "neo_reference_id": "3137734",
    "name": "(2002 TD58)",
    "designation": "2002 TD58",
    "nasa_jpl_url": "http://ssd.jpl.nasa.gov/sbdb.cgi?sstr=3137734",
    "absolute_magnitude_h": 23.1,
    "estimated_diameter": {
        "kilometers": {
            "estimated_diameter_min": 0.063760979,
            "estimated_diameter_max": 0.1425738833
        },
        "meters": {
            "estimated_diameter_min": 63.7609789875,
            "estimated_diameter_max": 142.5738833281
        },
        "miles": {
            "estimated_diameter_min": 0.0396192233,
            "estimated_diameter_max": 0.0885912765
        },
        "feet": {
            "estimated_diameter_min": 209.1895703015,
            "estimated_diameter_max": 467.7620993781
        }
    },
    "is_potentially_hazardous_asteroid": false,
    "close_approach_data": [
        {
            "close_approach_date": "1998-10-22",
            "close_approach_date_full": "1998-Oct-22 11:50",
            "epoch_date_close_approach": 909057000000,
            "relative_velocity": {
                "kilometers_per_second": "15.4274515351",
                "kilometers_per_hour": "55538.8255261991",
                "miles_per_hour": "34509.6663387652"
            },
            "miss_distance": {
                "astronomical": "0.3207727446",
                "lunar": "124.7805976494",
                "kilometers": "47986919.346214002",
                "miles": "29817689.0171251476"
            },
            "orbiting_body": "Earth"
        },
        {
            "close_approach_date": "2002-10-04",
            "close_approach_date_full": "2002-Oct-04 04:22",
            "epoch_date_close_approach": 1033705320000,
            "relative_velocity": {
                "kilometers_per_second": "10.2128669831",
                "kilometers_per_hour": "36766.3211391334",
                "miles_per_hour": "22845.1621544798"
            },
            "miss_distance": {
                "astronomical": "0.1081118862",
                "lunar": "42.0555237318",
                "kilometers": "16173307.897202394",
                "miles": "10049627.5199012772"
            },
            "orbiting_body": "Earth"
        },
        {
            "close_approach_date": "2010-08-22",
            "close_approach_date_full": "2010-Aug-22 23:16",
            "epoch_date_close_approach": 1282518960000,
            "relative_velocity": {
                "kilometers_per_second": "17.2134753826",
                "kilometers_per_hour": "61968.5113774039",
                "miles_per_hour": "38504.8230833652"
            },
            "miss_distance": {
                "astronomical": "0.459761447",
                "lunar": "178.847202883",
                "kilometers": "68779333.17931789",
                "miles": "42737495.873611282"
            },
            "orbiting_body": "Earth"
        }
    ],
    "orbital_data": {
        "orbit_id": "11",
        "orbit_determination_date": "2017-08-25 06:18:34",
        "first_observation_date": "2002-09-30",
        "last_observation_date": "2002-10-29",
        "data_arc_in_days": 29,
        "observations_used": 38,
        "orbit_uncertainty": "7",
        "minimum_orbit_intersection": ".0971545",
        "jupiter_tisserand_invariant": "3.192",
        "epoch_osculation": "2459000.5",
        "eccentricity": ".5625284767946275",
        "semi_major_axis": "2.496599264117779",
        "inclination": "14.62327140227901",
        "ascending_node_longitude": "194.1853390460349",
        "orbital_period": "1440.859665340279",
        "perihelion_distance": "1.092191082907017",
        "perihelion_argument": "168.7520968325768",
        "aphelion_distance": "3.901007445328541",
        "perihelion_time": "2458332.833222829701",
        "mean_anomaly": "166.8171061784448",
        "mean_motion": ".2498508415911421",
        "equinox": "J2000",
        "orbit_class": {
            "orbit_class_type": "AMO",
            "orbit_class_description": "Near-Earth asteroid orbits similar to that of 1221 Amor",
            "orbit_class_range": "1.017 AU < q (perihelion) < 1.3 AU"
        }
    },
    "is_sentry_object": false
}